[{"OBJECT_NAME":"LIZZIESAT-2 (LS-2)","OBJECT_ID":"2024-247G","EPOCH":"2026-03-09T11:47:37.199328","MEAN_MOTION":15.28222796,"ECCENTRICITY":0.00040927,"INCLINATION":44.9909,"RA_OF_ASC_NODE":117.0823,"ARG_OF_PERICENTER":327.5136,"MEAN_ANOMALY":32.5495,"EPHEMERIS_TYPE":0,"CLASSIFICATION_TYPE":"U","NORAD_CAT_ID":62383,"ELEMENT_SET_NO":999,"REV_AT_EPOCH":6771,"BSTAR":0.00034516624,"MEAN_MOTION_DOT":9.388e-5,"MEAN_MOTION_DDOT":0},{"OBJECT_NAME":"STARLINK-35382","OBJECT_ID":"2025-232Q","EPOCH":"2026-03-09T11:51:57.550176","MEAN_MOTION":15.30189182,"ECCENTRICITY":0.00013269,"INCLINATION":53.1592,"RA_OF_ASC_NODE":104.9559,"ARG_OF_PERICENTER":86.2334,"MEAN_ANOMALY":273.8819,"EPHEMERIS_TYPE":0,"CLASSIFICATION_TYPE":"U","NORAD_CAT_ID":66019,"ELEMENT_SET_NO":999,"REV_AT_EPOCH":2340,"BSTAR":0.00093906913,"MEAN_MOTION_DOT":0.00027547,"MEAN_MOTION_DDOT":0}]
